G21
G90
G0 X150.000 Y10.000 F2000
M3
G1 X390.000 Y250.000 F800
M5
G0 X139.566 Y10.000 F2000
M3
G1 X390.000 Y260.434 F800
M5
G0 X129.132 Y10.000 F2000
M3
G1 X390.000 Y270.868 F800
M5
G0 X118.698 Y10.000 F2000
M3
G1 X390.000 Y281.302 F800
M5
G0 X108.264 Y10.000 F2000
M3
G1 X388.264 Y290.000 F800
M5
G0 X97.830 Y10.000 F2000
M3
G1 X377.830 Y290.000 F800
M5
G0 X87.396 Y10.000 F2000
M3
G1 X367.396 Y290.000 F800
M5
G0 X76.962 Y10.000 F2000
M3
G1 X356.962 Y290.000 F800
M5
G0 X10.000 Y10.434 F2000
M3
G1 X10.434 Y10.000 F800
M5
G0 X10.000 Y20.868 F2000
M3
G1 X20.868 Y10.000 F800
M5
G0 X10.000 Y31.302 F2000
M3
G1 X31.302 Y10.000 F800
M5
G0 X10.000 Y41.736 F2000
M3
G1 X41.736 Y10.000 F800
M5
G0 X10.000 Y52.170 F2000
M3
G1 X52.170 Y10.000 F800
M5
G0 X10.000 Y62.604 F2000
M3
G1 X62.604 Y10.000 F800
M5
G0 X10.000 Y73.038 F2000
M3
G1 X73.038 Y10.000 F800
M5
G0 X10.000 Y83.473 F2000
M3
G1 X83.473 Y10.000 F800
M5
G0 X66.527 Y10.000 F2000
M3
G1 X346.527 Y290.000 F800
M5
G0 X56.093 Y10.000 F2000
M3
G1 X336.093 Y290.000 F800
M5
G0 X45.659 Y10.000 F2000
M3
G1 X325.659 Y290.000 F800
M5
G0 X35.225 Y10.000 F2000
M3
G1 X315.225 Y290.000 F800
M5
G0 X24.791 Y10.000 F2000
M3
G1 X304.791 Y290.000 F800
M5
G0 X14.357 Y10.000 F2000
M3
G1 X294.357 Y290.000 F800
M5
G0 X10.000 Y16.077 F2000
M3
G1 X283.923 Y290.000 F800
M5
G0 X10.000 Y26.511 F2000
M3
G1 X273.489 Y290.000 F800
M5
G0 X10.000 Y93.907 F2000
M3
G1 X93.907 Y10.000 F800
M5
G0 X10.000 Y104.341 F2000
M3
G1 X104.341 Y10.000 F800
M5
G0 X10.000 Y114.775 F2000
M3
G1 X114.775 Y10.000 F800
M5
G0 X10.000 Y125.209 F2000
M3
G1 X125.209 Y10.000 F800
M5
G0 X10.000 Y135.643 F2000
M3
G1 X135.643 Y10.000 F800
M5
G0 X10.000 Y146.077 F2000
M3
G1 X146.077 Y10.000 F800
M5
G0 X10.000 Y156.511 F2000
M3
G1 X156.511 Y10.000 F800
M5
G0 X10.000 Y166.945 F2000
M3
G1 X166.945 Y10.000 F800
M5
G0 X10.000 Y36.945 F2000
M3
G1 X263.055 Y290.000 F800
M5
G0 X10.000 Y47.379 F2000
M3
G1 X252.621 Y290.000 F800
M5
G0 X10.000 Y57.813 F2000
M3
G1 X242.187 Y290.000 F800
M5
G0 X10.000 Y68.247 F2000
M3
G1 X231.753 Y290.000 F800
M5
G0 X10.000 Y78.681 F2000
M3
G1 X221.319 Y290.000 F800
M5
G0 X10.000 Y89.115 F2000
M3
G1 X210.885 Y290.000 F800
M5
G0 X10.000 Y99.549 F2000
M3
G1 X200.451 Y290.000 F800
M5
G0 X10.000 Y109.983 F2000
M3
G1 X190.017 Y290.000 F800
M5
G0 X10.000 Y177.379 F2000
M3
G1 X177.379 Y10.000 F800
M5
G0 X10.000 Y187.813 F2000
M3
G1 X187.813 Y10.000 F800
M5
G0 X10.000 Y198.247 F2000
M3
G1 X198.247 Y10.000 F800
M5
G0 X10.000 Y208.681 F2000
M3
G1 X208.681 Y10.000 F800
M5
G0 X10.000 Y219.115 F2000
M3
G1 X219.115 Y10.000 F800
M5
G0 X10.000 Y229.549 F2000
M3
G1 X229.549 Y10.000 F800
M5
G0 X10.000 Y239.983 F2000
M3
G1 X239.983 Y10.000 F800
M5
G0 X10.000 Y250.418 F2000
M3
G1 X250.418 Y10.000 F800
M5
G0 X10.000 Y120.418 F2000
M3
G1 X179.582 Y290.000 F800
M5
G0 X10.000 Y130.852 F2000
M3
G1 X169.148 Y290.000 F800
M5
G0 X10.000 Y141.286 F2000
M3
G1 X158.714 Y290.000 F800
M5
G0 X10.000 Y151.720 F2000
M3
G1 X148.280 Y290.000 F800
M5
G0 X10.000 Y162.154 F2000
M3
G1 X137.846 Y290.000 F800
M5
G0 X10.000 Y172.588 F2000
M3
G1 X127.412 Y290.000 F800
M5
G0 X10.000 Y183.022 F2000
M3
G1 X116.978 Y290.000 F800
M5
G0 X10.000 Y193.456 F2000
M3
G1 X106.544 Y290.000 F800
M5
G0 X10.000 Y260.852 F2000
M3
G1 X260.852 Y10.000 F800
M5
G0 X10.000 Y271.286 F2000
M3
G1 X271.286 Y10.000 F800
M5
G0 X10.000 Y281.720 F2000
M3
G1 X281.720 Y10.000 F800
M5
G0 X12.154 Y290.000 F2000
M3
G1 X292.154 Y10.000 F800
M5
G0 X22.588 Y290.000 F2000
M3
G1 X302.588 Y10.000 F800
M5
G0 X33.022 Y290.000 F2000
M3
G1 X313.022 Y10.000 F800
M5
G0 X43.456 Y290.000 F2000
M3
G1 X323.456 Y10.000 F800
M5
G0 X10.000 Y10.000 F2000
M3
G1 X390.000 Y10.000 F800
M5
G0 X390.000 Y10.000 F2000
M3
G1 X390.000 Y290.000 F800
M5
G0 X390.000 Y290.000 F2000
M3
G1 X10.000 Y290.000 F800
M5
G0 X10.000 Y290.000 F2000
M3
G1 X10.000 Y10.000 F800
M5
M5
M2
